ONEWEB-0589             
1 54655U 22166P   25147.90192320  .00000081  00000+0  16369-3 0  9993
2 54655  87.9245 320.8323 0001780  64.3947 295.7371 13.21825779121117
ONEWEB-0590             
1 54656U 22166Q   25147.47125570 -.00000025  00000+0 -91653-4 0  9999
2 54656  87.9233 320.9022 0002270  89.7118 270.4276 13.21825780121035
ONEWEB-0591             
1 54657U 22166R   25147.48401509  .00000041  00000+0  66976-4 0  9996
2 54657  87.9244 320.9162 0001838  86.8179 273.3166 13.21825460121065
ONEWEB-0592             
1 54658U 22166S   25147.86565320 -.00000007  00000+0 -49034-4 0  9991
2 54658  87.9240 320.7925 0001893  88.5771 271.5580 13.21824784121007
ONEWEB-0593             
1 54659U 22166T   25147.73791443  .00000130  00000+0  28321-3 0  9995
2 54659  87.9243 320.8562 0001807  85.6627 274.4713 13.21825258121098
ONEWEB-0594             
1 54660U 22166U   25147.90822252  .00000021  00000+0  18664-4 0  9998
2 54660  87.9249 320.8342 0001772  93.8999 266.2338 13.21824910121126
ONEWEB-0595             
1 54661U 22166V   25147.88614785  .00000546  00000+0  12898-2 0  9999
2 54661  87.9246 320.8174 0002012  96.6082 263.5281 13.21829026121107
ONEWEB-0596             
1 54662U 22166W   25147.70794856 -.00000039  00000+0 -12579-3 0  9995
2 54662  87.9248 320.8654 0001905  91.6541 268.4811 13.21824933121080
ONEWEB-0597             
1 54663U 22166X   25147.91611392  .00000020  00000+0  17033-4 0  9991
2 54663  87.9249 320.8269 0001701  86.8184 273.3144 13.21826514121112
ONEWEB-0600             
1 54664U 22166Y   25147.89876899  .00000072  00000+0  14322-3 0  9998
2 54664  87.9229 320.8372 0001658  90.2563 269.8761 13.21825851121081
ONEWEB-0601             
1 54665U 22166Z   25147.73948058  .00000069  00000+0  13671-3 0  9991
2 54665  87.9249 320.8725 0001804  80.2860 279.8478 13.21825433121248
ONEWEB-0602             
1 54666U 22166AA  25145.73668683  .00000090  00000+0  18538-3 0  9994
2 54666  87.9248 321.2725 0001639  85.8800 274.2521 13.21824717120368
ONEWEB-0603             
1 54667U 22166AB  25145.74140811  .00000031  00000+0  42383-4 0  9995
2 54667  87.9223 321.2226 0001738  82.5896 277.5435 13.21824146120295
ONEWEB-0604             
1 54668U 22166AC  25145.95587963  .00000069  00000+0  13471-3 0  9998
2 54668  87.9242 321.1911 0001632  86.3033 273.8287 13.21825481120281
ONEWEB-0605             
1 54669U 22166AD  25145.49539576  .00000035  00000+0  52571-4 0  9993
2 54669  87.9241 321.3137 0002181  74.2205 285.9170 13.21824508120295
ONEWEB-0606             
1 54670U 22166AE  25145.74456188  .00000037  00000+0  57885-4 0  9995
2 54670  87.9248 321.2735 0001889  97.3446 262.7903 13.21825118120389
ONEWEB-0607             
1 54671U 22166AF  25145.78714187 -.00000004  00000+0 -41592-4 0  9990
2 54671  87.9245 321.2311 0001760  86.7154 273.4182 13.21825173120360
ONEWEB-0608             
1 54672U 22166AG  25145.71775181  .00000064  00000+0  12342-3 0  9999
2 54672  87.9229 321.2399 0001816  73.8262 286.3072 13.21824996120361
ONEWEB-0610             
1 54673U 22166AH  25145.92592535  .00000046  00000+0  80386-4 0  9997
2 54673  87.9246 321.2227 0001905  78.2537 281.8811 13.21825138120296
ONEWEB-0611             
1 54674U 22166AJ  25145.91961261  .00000052  00000+0  93831-4 0  9999
2 54674  87.9245 321.2209 0001817 100.7225 259.4114 13.21825227120288
ONEWEB-0612             
1 54675U 22166AK  25145.78084264  .00000023  00000+0  23584-4 0  9990
2 54675  87.9244 321.2266 0001799  84.2765 275.8574 13.21825400120257
ONEWEB-0615             
1 54676U 22166AL  25145.76192235  .00000021  00000+0  19329-4 0  9997
2 54676  87.9244 321.2565 0001802  93.0516 267.0824 13.21827853120263
ONEWEB-0655             
1 54677U 22166AM  25145.73511444  .00000086  00000+0  17787-3 0  9998
2 54677  87.9245 321.2662 0001459  88.2387 271.8914 13.21826875120258
ONEWEB-0659             
1 54678U 22166AN  25145.75245799  .00000098  00000+0  20502-3 0  9990
2 54678  87.9243 321.2644 0001965  93.9039 266.2319 13.21825397120341
ONEWEB-0685             
1 54679U 22166AP  25145.75402227  .00000083  00000+0  16844-3 0  9990
2 54679  87.9244 321.2583 0001624  85.9112 274.2208 13.21824372120236
ONEWEB-0712             
1 54680U 22166AQ  25145.70351372 -.00000057  00000+0 -18149-3 0  9994
2 54680  87.9021 305.9977 0001214 100.9493 259.1774 13.16595080121070
ONEWEB-0714             
1 54681U 22166AR  25147.87983638  .00000043  00000+0  72925-4 0  9997
2 54681  87.9246 320.8264 0001645  87.0201 273.1121 13.21826111121109
ONEWEB-0532             
1 55140U 23004A   25145.53107207  .00000094  00000+0  21004-3 0  9998
2 55140  87.9064  83.0433 0002441  75.1752 284.9650 13.17648242116538
ONEWEB-0533             
1 55141U 23004B   25145.71521796 -.00000113  00000+0 -34888-3 0  9990
2 55141  87.8894  67.7318 0001844  73.2979 286.8352 13.12440782117238
ONEWEB-0541             
1 55142U 23004C   25145.59470326 -.00000425  00000+0 -12343-2 0  9996
2 55142  87.8830  98.3042 0002056  81.4110 278.7251 13.11418569115140
ONEWEB-0543             
1 55143U 23004D   25145.96648725  .00000079  00000+0  16689-3 0  9999
2 55143  87.9147  52.4823 0001603  80.3060 279.8253 13.18685835118663
ONEWEB-0544             
1 55144U 23004E   25145.65666880 -.00000016  00000+0 -73365-4 0  9996
2 55144  87.9149  52.5334 0001832  86.5848 273.5493 13.18688092118621
ONEWEB-0560             
1 55145U 23004F   25145.72621875  .00000004  00000+0 -22606-4 0  9998
2 55145  87.9154  52.4910 0001843  87.9023 272.2321 13.18687052118642
ONEWEB-0565             
1 55146U 23004G   25145.71988892 -.00000026  00000+0 -98754-4 0  9995
2 55146  87.9149  52.5536 0002332  89.7184 270.4215 13.18684667118634
ONEWEB-0567             
1 55147U 23004H   25145.71356673  .00000019  00000+0  16165-4 0  9998
2 55147  87.9149  52.5107 0002084  91.4754 268.6617 13.18684672118637
ONEWEB-0569             
1 55148U 23004J   25145.72122088 -.00000235  00000+0 -67865-3 0  9995
2 55148  87.8990  37.2024 0002018 110.3053 249.8293 13.13468716119310
ONEWEB-0570             
1 55149U 23004K   25145.70092384  .00000021  00000+0  19858-4 0  9990
2 55149  87.9148  52.5160 0002565  77.0955 283.0464 13.18684727118625
ONEWEB-0571             
1 55150U 23004L   25145.99809931  .00000077  00000+0  16146-3 0  9994
2 55150  87.9148  52.4644 0002713 104.9695 255.1737 13.18683628118676
ONEWEB-0572             
1 55151U 23004M   25147.53579610  .00000100  00000+0  22507-3 0  9990
2 55151  87.9064  82.6509 0002287  81.4945 278.6446 13.17650275116690
ONEWEB-0573             
1 55152U 23004N   25145.99177646  .00000000  00000+0 -32303-4 0  9998
2 55152  87.9146  52.4725 0002711  90.7647 269.3796 13.18684251118667
ONEWEB-0588             
1 55153U 23004P   25145.98545869  .00000048  00000+0  90004-4 0  9997
2 55153  87.9149  52.4567 0002398  79.2565 280.8837 13.18685684118662
ONEWEB-0598             
1 55154U 23004Q   25145.57265504 -.00000160  00000+0 -48629-3 0  9990
2 55154  87.8827  98.3457 0002276  98.8371 261.3014 13.11416782115098
ONEWEB-0599             
1 55155U 23004R   25145.52263073  .00000027  00000+0  37034-4 0  9994
2 55155  87.9070  83.0557 0001952  85.4224 274.7131 13.17649075116437
ONEWEB-0614             
1 55156U 23004S   25145.87276808  .00000064  00000+0  14485-3 0  9998
2 55156  87.8828  98.2947 0002254  74.5222 285.6155 13.11415599115074
ONEWEB-0616             
1 55157U 23004T   25145.33700333  .00000003  00000+0 -26099-4 0  9994
2 55157  87.9062  83.0854 0001010  93.3190 266.8057 13.17647908116628
ONEWEB-0617             
1 55158U 23004U   25147.38682171  .00000055  00000+0  11873-3 0  9990
2 55158  87.8826  97.9744 0002426  79.3140 280.8261 13.11417035115306
ONEWEB-0618             
1 55159U 23004V   25145.82779335  .00149155  00000+0  41561-1 0  9997
2 55159  86.9064 331.1455 0011100 243.8534 116.1527 14.45269116124328
ONEWEB-0619             
1 55160U 23004W   25145.52094976  .00000062  00000+0  12690-3 0  9993
2 55160  87.9065  83.0263 0001944  65.1872 294.9461 13.17648906116540
ONEWEB-0620             
1 55161U 23004X   25147.61065981  .00000506  00000+0  13918-2 0  9996
2 55161  87.8831  97.9492 0002484  84.3675 275.7736 13.11419211115295
ONEWEB-0621             
1 55162U 23004Y   25145.57775799 -.00000361  00000+0 -10539-2 0  9992
2 55162  87.8824  98.3123 0002055  75.2101 284.9254 13.11415332115007
ONEWEB-0622             
1 55163U 23004Z   25145.35394401 -.00000465  00000+0 -13477-2 0  9995
2 55163  87.8827  98.3794 0002795  75.1178 285.0259 13.11417365114968
ONEWEB-0623             
1 55164U 23004AA  25145.51588171  .00000018  00000+0  13272-4 0  9990
2 55164  87.9066  83.0827 0002577  66.3736 293.7666 13.17647858116534
ONEWEB-0624             
1 55165U 23004AB  25145.74805978 -.00000131  00000+0 -39577-3 0  9996
2 55165  87.8893  67.7297 0002020  76.9485 283.1869 13.12939111117230
ONEWEB-0625             
1 55166U 23004AC  25147.55604391 -.00000020  00000+0 -83558-4 0  9990
2 55166  87.9065  82.6737 0001860  81.3116 278.8226 13.17649326116799
ONEWEB-0626             
1 55167U 23004AD  25145.79937590 -.00000020  00000+0 -85958-4 0  9991
2 55167  87.9065  83.0219 0002268  95.0207 265.1183 13.17647527116563
ONEWEB-0627             
1 55168U 23004AE  25145.55976651  .00000072  00000+0  15126-3 0  9991
2 55168  87.9065  83.0726 0002538  72.9123 287.2286 13.17649276116537
ONEWEB-0628             
1 55169U 23004AF  25145.28062695 -.00000290  00000+0 -84074-3 0  9998
2 55169  87.8892  67.8038 0002399  63.5696 296.5679 13.12445281117150
ONEWEB-0629             
1 55170U 23004AG  25145.76309013  .00000037  00000+0  60968-4 0  9995
2 55170  87.9080  83.0136 0001904  69.5054 290.6282 13.17647677116563
ONEWEB-0631             
1 55171U 23004AH  25145.97913752  .00000085  00000+0  18332-3 0  9990
2 55171  87.9162  52.3835 0002431  85.1413 274.9996 13.18686324118640
